#dP2018  5 28  0  0  0.00000000      96 __u+U ITR00 FIT  IAC
## 2003  86400.00000000   900.00000000 58266 0.0000000000000
+   85   C01C02C05C06C07C08C09C10C11C12C13C14E01E02E03E04E05
+        E07E08E09E11E12E14E18E19E24E26E30G01G02G03G05G06G07
+        G08G09G10G11G12G13G14G15G16G17G18G19G20G21G22G23G24
+        G25G26G27G28G29G30G31G32J01J02J03R01R02R03R04R05R07
+        R08R09R10R11R13R14R15R16R17R18R19R20R21R22R23R24R26
++        13 12 12  9  9  9  9  8  8  8  8  8  6  7  7  6  7
++         6  6  6  6  6  7  6  6  7  6  6  4  3  3  4  3  3
++         3  3  4  4  3  4  4  4  4  3  4  3  4  4  3  3  4
++         4  4  4  4  4  3  4  4 11 14 11  6  6  6  6  6  6
++         5  5  5  5  5  5  5  5  5  5  5  5  5  5  5  6  9
%c M  cc GPS ccc cccc cccc cccc cccc ccccc ccccc ccccc ccccc
%c cc cc ccc ccc cccc cccc cccc cccc ccccc ccccc ccccc ccccc
%f  0.0000000  0.000000000  0.00000000000  0.000000000000000
%f  0.0000000  0.000000000  0.00000000000  0.000000000000000
%i    0    0    0    0      0      0      0      0         0
%i    0    0    0    0      0      0      0      0         0
/* INFORMATION & ANALYSIS CENTER (IAC) OF MCC   (RAPID DATA)
/* S/V CLOCKS ARE ALIGNED TO GPS & GLONASS TIME RESPECTIVELY
/* USING THE BROADCAST EPHEMERIS                            
/* PCV:IGS14_2000 OL/AL:FES2004  NONE     YN ORB:CoN CLK:CoN
*  2018 05 28 18 45  0.00000000
PC01 -32301.112657  27107.450254   -883.481099   -239.358621
PC02   4355.833280  41940.832592    208.616541    403.133732
PC05  21935.793712  36024.882302    264.452664    399.149702
PC06 -13134.689479  21307.690293  34187.897104     33.804973
PC07 -24875.421111  32378.801025 -11304.925556    131.402134
PC08  -8939.993158  34533.680437 -22232.016313    362.400830
PC09   3776.467622  27225.576708  32235.686113    -88.178806
PC10 -10416.766032  33142.308575 -24039.172475   -266.683089
PC11  -8467.843269 -24452.463571  10587.422077   -526.639040
PC12   7702.228231 -14850.774835  22403.607442    458.198554
PC13   -348.364966  40866.858895  -9826.419365   -351.551598
PC14   -940.589699 -16019.540611 -22766.871379    373.728795
PE01  17048.554184   4829.357554 -23714.265770   -355.345854
PE02 -17067.627063  -4794.548490  23698.106386     14.759604
PE03 -26934.015331 -11159.161597  -5142.025360    -37.228277
PE04  26513.936517  -2304.284907 -12948.261021    -43.605390
PE05 -11556.862941 -18151.653409 -20315.052939    256.602929
PE07 -10536.363301  14509.664669  23566.570867     25.057888
PE08 -26478.230361   2494.494463  13016.463813   6575.486544
PE09  10391.244791 -14445.731125 -23637.522204   6779.061281
PE11   4752.803717 -24182.836122  16372.014763    465.923208
PE12  15623.303113  -5384.764716  24560.833691   4258.332331
PE14 -24489.543636  -8692.348416 -12544.613362   6575.751450
PE18  20325.063358  19986.190104   -340.583729   6174.451848
PE19  26131.202503  12070.652232   6927.858637     22.683232
PE24  16638.375636 -23337.674050   7405.537509   6682.619781
PE26   8322.897269  28393.038646    918.863775   5885.830006
PE30 -23915.594889  13130.104115  11465.245909   5803.604973
PG01  13282.209780 -17105.918428  15018.469724    -51.496486
PG02 -14284.277978  -6613.282155 -20866.598826    102.103680
PG03  21922.957168 -13333.310192  -6757.529711     79.004483
PG05 -23728.155925     66.277615 -12249.061302     -7.122587
PG06  -7488.569006 -20199.932384 -15483.275902    400.293300
PG07   5333.674868 -25735.568074   -937.481470    184.429934
PG08  19545.873013   -294.367277  18096.180461   -102.826613
PG09   1263.030503 -17300.637608 -20137.919985    514.343387
PG10   5854.475689  14075.895065  21794.868139    186.625225
PG11  11933.416437 -13371.227786  19088.793489   -735.311660
PG12 -24140.030221  10155.471857  -3933.814037    330.905684
PG13 -21231.231382  -9356.268028  12819.593303    -94.046468
PG14  19220.954003  18469.044975    104.002583    -97.138238
PG15 -19224.513625   3139.402177  18005.251486   -353.545745
PG16  23440.513701   2117.596798 -12870.677204     23.329999
PG17 -13758.626686 -20923.736388   9416.106075    -93.666074
PG18  15104.568902  -8750.965519  19507.927006     14.763402
PG19 -18320.156639 -19059.298451    883.169799   -432.831873
PG20  -9235.517616  18541.789437  16469.304980    509.232032
PG21   -837.919921  26466.128699   2954.689802   -389.015608
PG22  24803.757193  -9278.021163   2207.311221   -407.236471
PG23  13783.065248  -8374.483904 -20874.887024   -216.564865
PG24 -14318.981755  13897.138457  17270.748518    -50.377728
PG25 -14162.775896  16436.941763 -15338.818404   -592.227650
PG26  16128.409642   8346.660317 -19437.856391   -134.088646
PG27  22729.367034  11007.097092   8567.114634    367.881494
PG28  -1452.787552 -15054.692328  22459.012642    719.072052
PG29  -4464.590707  15197.119836 -21346.310323    442.186151
PG30   -826.922520 -25084.026312   8443.660517     68.985643
PG31   8225.219817  18664.777020 -16744.598192    118.482282
PG32  14344.391101  20251.201663   9622.151132   -502.992181
PJ01 -30102.602537  27072.334920  16980.275966   -242.496123
PJ02 -30861.533836  26803.315649  14707.665777    -21.504051
PJ03 -25244.740912  17258.343609 -24404.321015    -14.341420
PR01 -24257.955871  -4865.105522  -6234.837314     26.868607
PR02 -21318.504394   4391.361658  13304.221149    312.028389
PR03  -5361.791343  10410.806789  22701.988032    133.439696
PR04  14141.759452  10186.049240  18654.089917    262.660538
PR05  24822.788036   3945.326954   4321.200122    -15.613541
PR07   4981.258013 -10435.809436 -22698.826610    -38.685294
PR08 -13537.078282 -10302.163831 -18948.548166     22.967011
PR09  17252.483801 -16255.586332  -9324.511935     25.919521
PR10  11080.339393 -21526.023142   7874.591094     25.171027
PR11  -2119.936908 -14291.321932  21019.262156    -29.909738
PR13 -16872.150231  16743.020358   9246.368495    -10.859694
PR14 -11056.327613  21681.143402  -7658.014722     27.660270
PR15  -1152.651817  16718.548802 -19188.984465    -10.887510
PR16  13228.248500   -853.199773 -21840.481506     93.609829
PR17   1117.055861  20004.300112 -15763.189408    135.868036
PR18  10650.371269  23217.886020    122.069516    197.242565
PR19  13981.234820  13784.844794  16286.103984    -53.520427
PR20   9214.670715  -5106.977293  23234.037709   -339.601764
PR21  -1412.426293 -20192.469568  15532.479955     14.434387
PR22 -11342.515825 -22663.302381  -2183.618197    -46.637820
PR23 -13954.201813 -10070.383985 -18834.892792    156.360282
PR24  -8683.983387   6297.768508 -23170.043334   -166.875259
PR26   9482.956035  -4618.753489  23234.557308     22.598592
EOF
